{
    "links": {
        "self": "http://www.neowsapp.com/rest/v1/neo/3589296?api_key=iIulBulltgU6a56xZRHN4H3l9WmuAYTsLGpBGhQ2"
    },
    "id": "3589296",
    "neo_reference_id": "3589296",
    "name": "(2011 WL46)",
    "designation": "2011 WL46",
    "nasa_jpl_url": "http://ssd.jpl.nasa.gov/sbdb.cgi?sstr=3589296",
    "absolute_magnitude_h": 20.8,
    "estimated_diameter": {
        "kilometers": {
            "estimated_diameter_min": 0.1838886721,
            "estimated_diameter_max": 0.411187571
        },
        "meters": {
            "estimated_diameter_min": 183.8886720703,
            "estimated_diameter_max": 411.1875710413
        },
        "miles": {
            "estimated_diameter_min": 0.1142630881,
            "estimated_diameter_max": 0.2555000322
        },
        "feet": {
            "estimated_diameter_min": 603.309310875,
            "estimated_diameter_max": 1349.040630575
        }
    },
    "is_potentially_hazardous_asteroid": false,
    "close_approach_data": [
        {
            "close_approach_date": "2000-12-18",
            "close_approach_date_full": "2000-Dec-18 19:57",
            "epoch_date_close_approach": 977169420000,
            "relative_velocity": {
                "kilometers_per_second": "13.5149264517",
                "kilometers_per_hour": "48653.7352260304",
                "miles_per_hour": "30231.538979752"
            },
            "miss_distance": {
                "astronomical": "0.3061954762",
                "lunar": "119.1100402418",
                "kilometers": "45806191.043155694",
                "miles": "28462647.2837248172"
            },
            "orbiting_body": "Earth"
        },
        {
            "close_approach_date": "2011-12-12",
            "close_approach_date_full": "2011-Dec-12 11:23",
            "epoch_date_close_approach": 1323688980000,
            "relative_velocity": {
                "kilometers_per_second": "15.4604628226",
                "kilometers_per_hour": "55657.6661614147",
                "miles_per_hour": "34583.5092879079"
            },
            "miss_distance": {
                "astronomical": "0.4374772448",
                "lunar": "170.1786482272",
                "kilometers": "65445663.995548576",
                "miles": "40666049.8970433088"
            },
            "orbiting_body": "Earth"
        }
    ],
    "orbital_data": {
        "orbit_id": "7",
        "orbit_determination_date": "2017-04-06 08:51:53",
        "first_observation_date": "2011-11-26",
        "last_observation_date": "2011-12-28",
        "data_arc_in_days": 32,
        "observations_used": 28,
        "orbit_uncertainty": "7",
        "minimum_orbit_intersection": ".211359",
        "jupiter_tisserand_invariant": "3.280",
        "epoch_osculation": "2459000.5",
        "eccentricity": ".4947799409063046",
        "semi_major_axis": "2.364234698464301",
        "inclination": "22.9028547131096",
        "ascending_node_longitude": "263.7892472193633",
        "orbital_period": "1327.805023109805",
        "perihelion_distance": "1.194458794069499",
        "perihelion_argument": "184.0889315070503",
        "aphelion_distance": "3.534010602859102",
        "perihelion_time": "2458549.855157308484",
        "mean_anomaly": "122.1806971244826",
        "mean_motion": ".2711241437819364",
        "equinox": "J2000",
        "orbit_class": {
            "orbit_class_type": "AMO",
            "orbit_class_description": "Near-Earth asteroid orbits similar to that of 1221 Amor",
            "orbit_class_range": "1.017 AU < q (perihelion) < 1.3 AU"
        }
    },
    "is_sentry_object": false
}